{
  "type": "FeatureCollection",
  "features": [
    {
      "type": "Feature",
      "properties": {
        "norad_id": 41866,
        "name": "GOES 16",
        "group": "weather",
        "lat": 0.04517979073796056,
        "lon": 139.01921410599508,
        "alt_km": 35793.81575605581,
        "timestamp": "2025-12-11T10:53:15.526216+00:00",
        "meta_object_name": "GOES 16",
        "meta_object_id": "2016-071A",
        "meta_epoch": "2025-12-11T05:00:38.584224",
        "meta_mean_motion": 1.00271355,
        "meta_eccentricity": 0.000331,
        "meta_inclination": 0.0662,
        "meta_ra_of_asc_node": 103.7477,
        "meta_arg_of_pericenter": 158.2336,
        "meta_mean_anomaly": 148.679,
        "meta_ephemeris_type": 0,
        "meta_classification_type": "U",
        "meta_norad_cat_id": 41866,
        "meta_element_set_no": 999,
        "meta_rev_at_epoch": 3321,
        "meta_bstar": 0,
        "meta_mean_motion_dot": -8.5e-07,
        "meta_mean_motion_ddot": 0,
        "tle_line1": "1 41866U 16071A   25345.20877991 -.00000085  00000+0  00000+0 0  9994",
        "tle_line2": "2 41866   0.0662 103.7477 0003310 158.2336 148.6790  1.00271355 33213"
      },
      "geometry": {
        "type": "Point",
        "coordinates": [
          139.01921410599508,
          0.04517979073796056
        ]
      }
    },
    {
      "type": "Feature",
      "properties": {
        "norad_id": 41882,
        "name": "FENGYUN 4A",
        "group": "weather",
        "lat": -1.7733882631730447,
        "lon": 7.60759388047119,
        "alt_km": 35802.616001368384,
        "timestamp": "2025-12-11T10:53:15.526228+00:00",
        "meta_object_name": "FENGYUN 4A",
        "meta_object_id": "2016-077A",
        "meta_epoch": "2025-12-10T22:41:30.995232",
        "meta_mean_motion": 1.00270325,
        "meta_eccentricity": 0.0004947,
        "meta_inclination": 1.8448,
        "meta_ra_of_asc_node": 82.3997,
        "meta_arg_of_pericenter": 145.8044,
        "meta_mean_anomaly": 315.9271,
        "meta_ephemeris_type": 0,
        "meta_classification_type": "U",
        "meta_norad_cat_id": 41882,
        "meta_element_set_no": 999,
        "meta_rev_at_epoch": 3304,
        "meta_bstar": 0,
        "meta_mean_motion_dot": -3.51e-06,
        "meta_mean_motion_ddot": 0,
        "tle_line1": "1 41882U 16077A   25344.94549763 -.00000351  00000+0  00000+0 0  9997",
        "tle_line2": "2 41882   1.8448  82.3997 0004947 145.8044 315.9271  1.00270325 33046"
      },
      "geometry": {
        "type": "Point",
        "coordinates": [
          7.60759388047119,
          -1.7733882631730447
        ]
      }
    },
    {
      "type": "Feature",
      "properties": {
        "norad_id": 41884,
        "name": "CYGFM05",
        "group": "weather",
        "lat": 13.908941949848698,
        "lon": 76.29143299794767,
        "alt_km": 426.3642012358496,
        "timestamp": "2025-12-11T10:53:15.526240+00:00",
        "meta_object_name": "CYGFM05",
        "meta_object_id": "2016-078A",
        "meta_epoch": "2025-12-10T14:39:13.190112",
        "meta_mean_motion": 15.47511355,
        "meta_eccentricity": 0.0009831,
        "meta_inclination": 34.9599,
        "meta_ra_of_asc_node": 61.038,
        "meta_arg_of_pericenter": 163.8231,
        "meta_mean_anomaly": 196.2806,
        "meta_ephemeris_type": 0,
        "meta_classification_type": "U",
        "meta_norad_cat_id": 41884,
        "meta_element_set_no": 999,
        "meta_rev_at_epoch": 49943,
        "meta_bstar": 0.00053014,
        "meta_mean_motion_dot": 0.00028182,
        "meta_mean_motion_ddot": 0,
        "tle_line1": "1 41884U 16078A   25344.61056933  .00028182  00000+0  53014-3 0  9994",
        "tle_line2": "2 41884  34.9599  61.0380 0009831 163.8231 196.2806 15.47511355499437"
      },
      "geometry": {
        "type": "Point",
        "coordinates": [
          76.29143299794767,
          13.908941949848698
        ]
      }
    },
    {
      "type": "Feature",
      "properties": {
        "norad_id": 41885,
        "name": "CYGFM04",
        "group": "weather",
        "lat": -32.930886974989605,
        "lon": -81.54585866498618,
        "alt_km": 414.0979131594713,
        "timestamp": "2025-12-11T10:53:15.526251+00:00",
        "meta_object_name": "CYGFM04",
        "meta_object_id": "2016-078B",
        "meta_epoch": "2025-12-11T05:10:15.261024",
        "meta_mean_motion": 15.50253056,
        "meta_eccentricity": 0.0009303,
        "meta_inclination": 34.9353,
        "meta_ra_of_asc_node": 31.908,
        "meta_arg_of_pericenter": 196.8929,
        "meta_mean_anomaly": 163.1484,
        "meta_ephemeris_type": 0,
        "meta_classification_type": "U",
        "meta_norad_cat_id": 41885,
        "meta_element_set_no": 999,
        "meta_rev_at_epoch": 49970,
        "meta_bstar": 0.00052473,
        "meta_mean_motion_dot": 0.00030733,
        "meta_mean_motion_ddot": 0,
        "tle_line1": "1 41885U 16078B   25345.21545441  .00030733  00000+0  52473-3 0  9992",
        "tle_line2": "2 41885  34.9353  31.9080 0009303 196.8929 163.1484 15.50253056499703"
      },
      "geometry": {
        "type": "Point",
        "coordinates": [
          -81.54585866498618,
          -32.930886974989605
        ]
      }
    },
    {
      "type": "Feature",
      "properties": {
        "norad_id": 41886,
        "name": "CYGFM02",
        "group": "weather",
        "lat": -34.11427528400468,
        "lon": -75.34774000148136,
        "alt_km": 410.21625556273375,
        "timestamp": "2025-12-11T10:53:15.526262+00:00",
        "meta_object_name": "CYGFM02",
        "meta_object_id": "2016-078C",
        "meta_epoch": "2025-12-11T05:08:50.924256",
        "meta_mean_motion": 15.51625052,
        "meta_eccentricity": 0.0010962,
        "meta_inclination": 34.9444,
        "meta_ra_of_asc_node": 30.2604,
        "meta_arg_of_pericenter": 196.6224,
        "meta_mean_anomaly": 163.4141,
        "meta_ephemeris_type": 0,
        "meta_classification_type": "U",
        "meta_norad_cat_id": 41886,
        "meta_element_set_no": 999,
        "meta_rev_at_epoch": 49983,
        "meta_bstar": 0.00053842,
        "meta_mean_motion_dot": 0.00033157,
        "meta_mean_motion_ddot": 0,
        "tle_line1": "1 41886U 16078C   25345.21447829  .00033157  00000+0  53842-3 0  9998",
        "tle_line2": "2 41886  34.9444  30.2604 0010962 196.6224 163.4141 15.51625052499835"
      },
      "geometry": {
        "type": "Point",
        "coordinates": [
          -75.34774000148136,
          -34.11427528400468
        ]
      }
    },
    {
      "type": "Feature",
      "properties": {
        "norad_id": 41887,
        "name": "CYGFM01",
        "group": "weather",
        "lat": 31.62084632773268,
        "lon": 119.75118769389252,
        "alt_km": 417.0848587278779,
        "timestamp": "2025-12-11T10:53:15.526273+00:00",
        "meta_object_name": "CYGFM01",
        "meta_object_id": "2016-078D",
        "meta_epoch": "2025-12-10T22:13:16.222080",
        "meta_mean_motion": 15.48103632,
        "meta_eccentricity": 0.0009424,
        "meta_inclination": 34.9432,
        "meta_ra_of_asc_node": 61.3408,
        "meta_arg_of_pericenter": 158.7693,
        "meta_mean_anomaly": 201.3421,
        "meta_ephemeris_type": 0,
        "meta_classification_type": "U",
        "meta_norad_cat_id": 41887,
        "meta_element_set_no": 999,
        "meta_rev_at_epoch": 49942,
        "meta_bstar": 0.00053215,
        "meta_mean_motion_dot": 0.00028881,
        "meta_mean_motion_ddot": 0,
        "tle_line1": "1 41887U 16078D   25344.92588220  .00028881  00000+0  53215-3 0  9999",
        "tle_line2": "2 41887  34.9432  61.3408 0009424 158.7693 201.3421 15.48103632499429"
      },
      "geometry": {
        "type": "Point",
        "coordinates": [
          119.75118769389252,
          31.62084632773268
        ]
      }
    },
    {
      "type": "Feature",
      "properties": {
        "norad_id": 41888,
        "name": "CYGFM08",
        "group": "weather",
        "lat": 32.73931763842509,
        "lon": 153.86365222083316,
        "alt_km": 411.0035869711901,
        "timestamp": "2025-12-11T10:53:15.526284+00:00",
        "meta_object_name": "CYGFM08",
        "meta_object_id": "2016-078E",
        "meta_epoch": "2025-12-11T04:13:57.874656",
        "meta_mean_motion": 15.49317028,
        "meta_eccentricity": 0.0011383,
        "meta_inclination": 34.9462,
        "meta_ra_of_asc_node": 42.7135,
        "meta_arg_of_pericenter": 184.8432,
        "meta_mean_anomaly": 175.2181,
        "meta_ephemeris_type": 0,
        "meta_classification_type": "U",
        "meta_norad_cat_id": 41888,
        "meta_element_set_no": 999,
        "meta_rev_at_epoch": 49969,
        "meta_bstar": 0.00051808,
        "meta_mean_motion_dot": 0.0002937,
        "meta_mean_motion_ddot": 0,
        "tle_line1": "1 41888U 16078E   25345.17636429  .00029370  00000+0  51808-3 0  9993",
        "tle_line2": "2 41888  34.9462  42.7135 0011383 184.8432 175.2181 15.49317028499699"
      },
      "geometry": {
        "type": "Point",
        "coordinates": [
          153.86365222083316,
          32.73931763842509
        ]
      }
    }
  ]
}